NORAD_CAT_ID,OBJECT_NAME,OBJECT_TYPE,EPOCH,MEAN_MOTION,ECCENTRICITY,INCLINATION,RA_OF_ASC_NODE,ARG_OF_PERICENTER,MEAN_ANOMALY,BSTAR,MEAN_MOTION_DOT,MEAN_MOTION_DDOT,TLE_LINE0,TLE_LINE1,TLE_LINE2,SEMIMAJOR_AXIS,PERIOD,APOGEE,PERIGEE,DECAYED
53850.0,STARLINK-4767,PAYLOAD,2023-03-14 15:02:56,15.08852283,0.0001212,53.2185,151.7056,101.0114,259.1014,-7.897e-05,-1.545e-05,0.0,0 STARLINK-4767,1 53850U 22114AJ  23073.62703749 -.00001545  00000-0 -78970-4 0  9996,2 53850  53.2185 151.7056 0001212 101.0114 259.1014 15.08852283 28268,6917.843,95.437,540.546,538.869,0.0
53850.0,STARLINK-4767,PAYLOAD,2023-03-15 11:42:54,15.08862882,0.0001244,53.2182,147.8399,82.9601,277.1533,0.00024739,3.654e-05,0.0,0 STARLINK-4767,1 53850U 22114AJ  23074.48813388  .00003654  00000-0  24739-3 0  9996,2 53850  53.2182 147.8399 0001244  82.9601 277.1533 15.08862882 27850,6917.81,95.436,540.536,538.815,0.0
53850.0,STARLINK-4767,PAYLOAD,2023-03-15 21:15:15,15.08836137,0.0001909,53.2182,146.057,71.6488,288.4712,1.6948e-05,-1.8e-07,0.0,0 STARLINK-4767,1 53850U 22114AJ  23074.88559781 -.00000018  00000-0  16948-4 0  9990,2 53850  53.2182 146.0570 0001909  71.6488 288.4712 15.08836137 28453,6917.892,95.438,541.078,538.437,0.0
53850.0,STARLINK-4767,PAYLOAD,2023-03-16 05:12:11,15.08839827,0.0002235,53.2175,144.5709,71.6291,288.4944,-6.9814e-05,-1.399e-05,0.0,0 STARLINK-4767,1 53850U 22114AJ  23075.21680116 -.00001399  00000-0 -69814-4 0  9999,2 53850  53.2175 144.5709 0002235  71.6291 288.4944 15.08839827 27968,6917.881,95.438,541.292,538.2,0.0
53850.0,STARLINK-4767,PAYLOAD,2023-03-16 11:33:44,15.08832821,0.0001501,53.2184,143.3824,77.1126,283.0034,-0.00012744,-2.315e-05,0.0,0 STARLINK-4767,1 53850U 22114AJ  23075.48176654 -.00002315  00000-0 -12744-3 0  9993,2 53850  53.2184 143.3824 0001501  77.1126 283.0034 15.08832821 28000,6917.902,95.438,540.806,538.729,0.0
53850.0,STARLINK-4767,PAYLOAD,2023-03-16 13:09:07,15.08834123,0.00015,53.2189,143.0854,84.6483,275.468,-0.00011481,-2.114e-05,0.0,0 STARLINK-4767,1 53850U 22114AJ  23075.54800526 -.00002114  00000-0 -11481-3 0  9996,2 53850  53.2189 143.0854 0001500  84.6483 275.4680 15.08834123 28552,6917.898,95.438,540.801,538.726,0.0
53850.0,STARLINK-4767,PAYLOAD,2023-03-16 21:06:04,15.08827752,0.000165,53.2188,141.5963,83.8469,276.2712,-0.00017806,-3.12e-05,0.0,0 STARLINK-4767,1 53850U 22114AJ  23075.87921301 -.00003120  00000-0 -17806-3 0  9992,2 53850  53.2188 141.5963 0001650  83.8469 276.2712 15.08827752 28607,6917.918,95.438,540.924,538.641,0.0
53850.0,STARLINK-4767,PAYLOAD,2023-03-17 11:24:32,15.0883195,0.0001397,53.2184,138.9254,111.0116,249.1026,-0.00029673,-5.006e-05,0.0,0 STARLINK-4767,1 53850U 22114AJ  23076.47537955 -.00005006  00000-0 -29673-3 0  9997,2 53850  53.2184 138.9254 0001397 111.0116 249.1026 15.08831950 28698,6917.905,95.438,540.736,538.804,0.0
53850.0,STARLINK-4767,PAYLOAD,2023-03-17 20:56:50,15.08843618,0.0001144,53.2179,137.1356,93.7016,266.4107,-0.00017012,-2.995e-05,0.0,0 STARLINK-4767,1 53850U 22114AJ  23076.87280811 -.00002995  00000-0 -17012-3 0  9995,2 53850  53.2179 137.1356 0001144  93.7016 266.4107 15.08843618 28754,6917.869,95.437,540.526,538.943,0.0
53850.0,STARLINK-4767,PAYLOAD,2023-03-18 03:18:22,15.08830252,9.47e-05,53.217,135.9491,98.0686,262.0414,0.00024281,3.578e-05,0.0,0 STARLINK-4767,1 53850U 22114AJ  23077.13776351  .00003578  00000-0  24281-3 0  9996,2 53850  53.2170 135.9491 0000947  98.0686 262.0414 15.08830252 28250,6917.91,95.438,540.43,539.12,0.0
53850.0,STARLINK-4767,PAYLOAD,2023-03-18 11:15:17,15.08847261,0.0001289,53.2183,134.4634,112.0013,248.1116,0.00020257,2.938e-05,0.0,0 STARLINK-4767,1 53850U 22114AJ  23077.46895556  .00002938  00000-0  20257-3 0  9999,2 53850  53.2183 134.4634 0001289 112.0013 248.1116 15.08847261 28306,6917.858,95.437,540.615,538.831,0.0
53850.0,STARLINK-4767,PAYLOAD,2023-03-18 20:47:36,15.08846411,0.0001226,53.2167,132.6782,90.9354,269.1779,9.0671e-05,1.156e-05,0.0,0 STARLINK-4767,1 53850U 22114AJ  23077.86639961  .00001156  00000-0  90671-4 0  9998,2 53850  53.2167 132.6782 0001226  90.9354 269.1779 15.08846411 28365,6917.861,95.437,540.574,538.878,0.0
53850.0,STARLINK-4767,PAYLOAD,2023-03-19 04:44:33,15.08832117,0.0001509,53.2172,131.1922,96.9352,263.1811,0.0001831,2.627e-05,0.0,0 STARLINK-4767,1 53850U 22114AJ  23078.19760759  .00002627  00000-0  18310-3 0  9998,2 53850  53.2172 131.1922 0001509  96.9352 263.1811 15.08832117 28414,6917.904,95.438,540.813,538.726,0.0
53850.0,STARLINK-4767,PAYLOAD,2023-03-19 11:06:05,15.08839808,0.0001275,53.2169,130.0021,100.6369,259.4766,0.00017857,2.555e-05,0.0,0 STARLINK-4767,1 53850U 22114AJ  23078.46256284  .00002555  00000-0  17857-3 0  9996,2 53850  53.2169 130.0021 0001275 100.6369 259.4766 15.08839808 28993,6917.881,95.438,540.628,538.864,0.0
53850.0,STARLINK-4767,PAYLOAD,2023-03-19 20:38:24,15.08838293,0.0001277,53.2181,128.2167,92.6546,267.4592,2.7422e-05,1.49e-06,0.0,0 STARLINK-4767,1 53850U 22114AJ  23078.86000891  .00000149  00000-0  27422-4 0  9998,2 53850  53.2181 128.2167 0001277  92.6546 267.4592 15.08838293 29057,6917.886,95.438,540.634,538.867,0.0
53850.0,STARLINK-4767,PAYLOAD,2023-03-20 07:46:06,15.08843152,0.0001627,53.2176,126.1362,85.341,274.7768,-0.00010499,-1.959e-05,0.0,0 STARLINK-4767,1 53850U 22114AJ  23079.32369128 -.00001959  00000-0 -10499-3 0  9998,2 53850  53.2176 126.1362 0001627  85.3410 274.7768 15.08843152 28586,6917.871,95.437,540.861,538.61,0.0
53850.0,STARLINK-4767,PAYLOAD,2023-03-20 09:21:29,15.08843286,0.000144,53.2173,125.8382,90.6165,269.4992,-9.3824e-05,-1.781e-05,0.0,0 STARLINK-4767,1 53850U 22114AJ  23079.38993016 -.00001781  00000-0 -93824-4 0  9990,2 53850  53.2173 125.8382 0001440  90.6165 269.4992 15.08843286 29130,6917.87,95.437,540.732,538.739,0.0
53850.0,STARLINK-4767,PAYLOAD,2023-03-20 20:29:11,15.08843896,0.0001334,53.2176,123.7548,96.9082,263.2062,-0.00011996,-2.197e-05,0.0,0 STARLINK-4767,1 53850U 22114AJ  23079.85360798 -.00002197  00000-0 -11996-3 0  9998,2 53850  53.2176 123.7548 0001334  96.9082 263.2062 15.08843896 29208,6917.868,95.437,540.656,538.811,0.0
53850.0,STARLINK-4767,PAYLOAD,2023-03-21 10:47:39,15.08847792,0.0001584,53.2175,121.0778,105.6738,254.4428,-4.7941e-05,-1.051e-05,0.0,0 STARLINK-4767,1 53850U 22114AJ  23080.44976299 -.00001051  00000-0 -47941-4 0  9992,2 53850  53.2175 121.0778 0001584 105.6738 254.4428 15.08847792 29292,6917.857,95.437,540.817,538.626,0.0
53850.0,STARLINK-4767,PAYLOAD,2023-03-22 05:52:17,15.08836476,0.0001483,53.2169,117.5095,92.4927,267.6235,3.5766e-05,2.81e-06,0.0,0 STARLINK-4767,1 53850U 22114AJ  23081.24464787  .00000281  00000-0  35766-4 0  9999,2 53850  53.2169 117.5095 0001483  92.4927 267.6235 15.08836476 28870,6917.891,95.438,540.782,538.73,0.0
53850.0,STARLINK-4767,PAYLOAD,2023-03-22 07:27:40,15.08837237,0.0001487,53.217,117.2122,92.352,267.7642,4.1142e-05,3.67e-06,0.0,0 STARLINK-4767,1 53850U 22114AJ  23081.31088732  .00000367  00000-0  41142-4 0  9999,2 53850  53.2170 117.2122 0001487  92.3520 267.7642 15.08837237 29423,6917.889,95.438,540.783,538.725,0.0
53850.0,STARLINK-4767,PAYLOAD,2023-03-23 08:53:50,15.08845066,0.0001604,53.2174,112.4552,96.0846,264.0329,4.789e-05,4.74e-06,0.0,0 STARLINK-4767,1 53850U 22114AJ  23082.37072233  .00000474  00000-0  47890-4 0  9990,2 53850  53.2174 112.4552 0001604  96.0846 264.0329 15.08845066 29043,6917.865,95.437,540.84,538.62,0.0
53850.0,STARLINK-4767,PAYLOAD,2023-03-23 18:26:09,15.08840043,0.0001519,53.2171,110.6703,88.5405,271.5761,2.3051e-05,7.9e-07,0.0,0 STARLINK-4767,1 53850U 22114AJ  23082.76816575  .00000079  00000-0  23051-4 0  9992,2 53850  53.2171 110.6703 0001519  88.5405 271.5761 15.08840043 29649,6917.88,95.438,540.796,538.694,0.0
53850.0,STARLINK-4767,PAYLOAD,2023-03-24 02:23:05,15.08838423,0.0001638,53.218,109.1868,103.7815,256.336,1.2624e-05,-8.7e-07,0.0,0 STARLINK-4767,1 53850U 22114AJ  23083.09936732 -.00000087  00000-0  12624-4 0  9991,2 53850  53.2180 109.1868 0001638 103.7815 256.3360 15.08838423 29152,6917.885,95.438,540.883,538.617,0.0
53850.0,STARLINK-4767,PAYLOAD,2023-03-24 07:09:14,15.08846551,0.0001888,53.2185,108.297,105.4158,254.7043,8.2371e-05,1.023e-05,0.0,0 STARLINK-4767,1 53850U 22114AJ  23083.29808061  .00001023  00000-0  82371-4 0  9992,2 53850  53.2185 108.2970 0001888 105.4158 254.7043 15.08846551 29181,6917.86,95.437,541.031,538.419,0.0
53850.0,STARLINK-4767,PAYLOAD,2023-03-24 10:19:59,15.08851793,0.0001464,53.2176,107.6998,100.1824,259.9333,0.00011764,1.585e-05,0.0,0 STARLINK-4767,1 53850U 22114AJ  23083.43055415  .00001585  00000-0  11764-3 0  9995,2 53850  53.2176 107.6998 0001464 100.1824 259.9333 15.08851793 29741,6917.844,95.437,540.722,538.697,0.0
53850.0,STARLINK-4767,PAYLOAD,2023-03-24 18:16:58,15.08819764,0.0001233,53.218,106.2155,101.4081,258.705,-0.00015076,-2.685e-05,0.0,0 STARLINK-4767,1 53850U 22114AJ  23083.76178376 -.00002685  00000-0 -15076-3 0  9997,2 53850  53.2180 106.2155 0001233 101.4081 258.7050 15.08819764 29250,6917.942,95.439,540.66,538.954,0.0
53850.0,STARLINK-4767,PAYLOAD,2023-03-25 05:24:42,15.08799484,0.0001388,53.217,104.1311,90.9748,269.1403,-0.00032801,-5.499e-05,0.0,0 STARLINK-4767,1 53850U 22114AJ  23084.22549188 -.00005499  00000-0 -32801-3 0  9993,2 53850  53.2170 104.1311 0001388  90.9748 269.1403 15.08799484 29325,6918.004,95.44,540.829,538.909,0.0
53850.0,STARLINK-4767,PAYLOAD,2023-03-25 10:10:50,15.08817976,0.000179,53.218,103.2395,141.1133,218.9988,-0.00018231,-3.187e-05,0.0,0 STARLINK-4767,1 53850U 22114AJ  23084.42419655 -.00003187  00000-0 -18231-3 0  9993,2 53850  53.2180 103.2395 0001790 141.1133 218.9988 15.08817976 29352,6917.948,95.439,541.051,538.574,0.0
53850.0,STARLINK-4767,PAYLOAD,2023-03-26 02:04:40,15.08842275,0.0001504,53.2192,100.2672,88.2758,271.8406,5.0679e-05,5.19e-06,0.0,0 STARLINK-4767,1 53850U 22114AJ  23085.08658010  .00000519  00000-0  50679-4 0  9993,2 53850  53.2192 100.2672 0001504  88.2758 271.8406 15.08842275 29451,6917.873,95.437,540.779,538.698,0.0
